OBJECT_NAME,OBJECT_ID,EPOCH,MEAN_MOTION,ECCENTRICITY,INCLINATION,RA_OF_ASC_NODE,ARG_OF_PERICENTER,MEAN_ANOMALY,EPHEMERIS_TYPE,CLASSIFICATION_TYPE,NORAD_CAT_ID,ELEMENT_SET_NO,REV_AT_EPOCH,BSTAR,MEAN_MOTION_DOT,MEAN_MOTION_DDOT
EAGLEEYE,2024-149AS,2026-05-11T12:44:46.545792,15.65021232,.0002003,97.3719,223.0275,58.1686,301.9769,0,U,60508,999,9719,.47406E-3,.46585E-3,0
FLOCK 4BE-29,2024-149AT,2026-05-11T11:40:00.114816,15.42938267,.0003898,97.3804,216.8433,84.8638,275.3054,0,U,60509,999,9675,.25603E-3,.11177E-3,0
TRANSPORTER-11 OBJECT AU,2024-149AU,2026-05-11T11:13:47.288352,15.39192200,.0004807,97.3725,214.9263,74.1766,286.0009,0,U,60510,999,9666,.23922E-3,.9216E-4,0
FLOCK 4BE-2,2024-149AV,2026-05-11T12:50:50.955072,15.48985230,.0003702,97.3820,217.9015,84.0150,276.1523,0,U,60511,999,9682,.57012E-3,.30823E-3,0
FLOCK 4BE-13,2024-149AW,2026-05-11T11:25:33.070080,15.40896548,.0004829,97.3716,215.5361,57.8671,302.3043,0,U,60512,999,9671,.22742E-3,.9264E-4,0
FLOCK 4BE-27,2024-149AX,2026-05-11T05:03:30.707712,15.33801239,.0005361,97.3823,213.0637,83.3999,276.7854,0,U,60513,999,9647,.16952E-3,.5463E-4,0
FLOCK 4BE-9,2024-149AY,2026-05-11T04:30:31.480704,15.39684900,.0004051,97.3788,215.1346,87.1796,272.9914,0,U,60514,999,9662,.27473E-3,.1077E-3,0
FLOCK 4BE-6,2024-149BA,2026-05-11T04:31:38.504640,15.38565107,.0004813,97.3787,214.5604,83.5504,276.6289,0,U,60516,999,9658,.26438E-3,.9987E-4,0
FLOCK 4BE-14,2024-149BB,2026-05-11T04:54:35.248896,15.39852761,.0005635,97.3692,214.6840,80.5101,279.6782,0,U,60517,999,9663,.25517E-3,.10054E-3,0
FLOCK 4BE-1,2024-149BC,2026-05-11T04:37:52.919904,15.41363314,.0005173,97.3777,215.8200,80.3491,279.8340,0,U,60518,999,9667,.26418E-3,.10946E-3,0
FLOCK 4BE-28,2024-149BD,2026-05-11T10:57:00.882144,15.43621202,.0005243,97.3743,216.6986,74.6999,285.4828,0,U,60519,999,9677,.28631E-3,.12806E-3,0
IPERDRONE.0,2024-149BE,2026-05-11T12:25:49.522656,15.61817763,.0001701,97.3772,223.0703,47.1685,312.9715,0,U,60520,999,9718,.45419E-3,.3934E-3,0
TRANSPORTER-11 OBJECT BF,2024-149BF,2026-05-11T12:42:06.699744,15.72302814,.0000516,97.3770,225.0351,352.9787,7.1469,0,U,60521,999,9730,.70769E-3,.94233E-3,0
CONNECTA IOT-2,2024-149BG,2026-05-11T11:19:46.454016,15.23656181,.000817,97.3840,210.1827,94.9179,265.2991,0,U,60522,999,9630,.12169E-3,.2849E-4,0
PTD-R (TYVAK-0127),2024-149BH,2026-05-11T06:00:55.956096,15.87463119,.0001144,97.3760,228.7308,203.0875,157.0346,0,U,60523,999,9754,.54726E-3,.145725E-2,0
CONNECTA IOT-4,2024-149BJ,2026-05-11T11:08:16.666656,15.40792610,.0006294,97.3794,215.4407,72.2396,287.9537,0,U,60524,999,9667,.28162E-3,.11458E-3,0
ORESAT0.5,2024-149BK,2026-05-11T12:13:21.456768,15.43710185,.0006269,97.3716,216.9900,62.6049,297.5836,0,U,60525,999,9681,.27894E-3,.12514E-3,0
DEIMOS,2024-149BL,2026-05-11T10:58:20.288928,15.42917795,.000642,97.3776,217.0942,68.2246,291.9684,0,U,60526,999,9678,.28087E-3,.12269E-3,0
CUAVA-2,2024-149BM,2026-05-11T11:06:30.907008,15.35267435,.0007906,97.3725,212.9452,71.3979,288.8122,0,U,60527,999,9653,.22789E-3,.773E-4,0
ERNST,2024-149BN,2026-05-11T11:47:40.206048,15.38234928,.0007303,97.3803,214.9654,75.0874,285.1179,0,U,60528,999,9663,.23889E-3,.8923E-4,0
TORO,2024-149BQ,2026-05-11T04:38:22.334784,14.96284076,.000159,97.6790,206.5542,94.6937,265.4466,0,U,60530,999,9442,.75232E-4,.793E-5,0
HYPSO-2,2024-149BR,2026-05-11T11:30:13.451904,14.98604028,.0002153,97.6813,208.2775,113.6363,246.5086,0,U,60531,999,9455,.13418E-3,.1551E-4,0
LEMU NGE,2024-149BS,2026-05-11T10:28:57.165600,14.94799480,.0002543,97.6847,207.1417,114.5734,245.5752,0,U,60532,999,9446,.13451E-3,.1407E-4,0
LEMUR-2-STELLA,2024-149BT,2026-05-11T11:15:59.457888,15.10996180,.0001964,97.6730,213.7899,123.4462,236.6955,0,U,60533,999,9495,.37683E-3,.6228E-4,0
SATELIOT_2,2024-149BU,2026-05-11T10:42:50.319072,14.96224830,.0001367,97.6834,207.0750,107.5919,252.5451,0,U,60534,999,9447,.73212E-4,.769E-5,0
NIGHTJAR,2024-149BV,2026-05-11T13:01:25.652064,14.98798337,.0001181,97.6834,208.7633,157.2143,202.9133,0,U,60535,999,13738,.14736E-3,.1718E-4,0
LEMUR-2-MARHISYAM,2024-149BW,2026-05-11T12:04:31.594080,15.10485858,.0001401,97.6874,214.2338,199.2786,160.8390,0,U,60536,999,9494,.41408E-3,.6754E-4,0
SATELIOT_4,2024-149BX,2026-05-11T11:09:21.680928,14.96530172,.0002916,97.6737,206.6458,133.9373,226.2090,0,U,60537,999,9448,.98058E-4,.1058E-4,0
PICO-02A021,2024-149BY,2026-05-11T11:38:19.660128,15.02902826,.000659,97.6767,210.6440,131.9823,228.1964,0,U,60538,999,9422,.23246E-3,.306E-4,0
ICEYE-X43,2024-149BZ,2026-05-11T11:11:05.233056,14.99741455,.0004333,97.6771,208.9381,204.7302,155.3714,0,U,60539,999,9461,.13514E-3,.161E-4,0
