EAGLEEYE                
1 60508U 24149AS  26131.53109428  .00046585  00000+0  47406-3 0  9995
2 60508  97.3719 223.0275 0002003  58.1686 301.9769 15.65021232 97195
FLOCK 4BE-29            
1 60509U 24149AT  26131.48611244  .00011177  00000+0  25603-3 0  9998
2 60509  97.3804 216.8433 0003898  84.8638 275.3054 15.42938267 96755
TRANSPORTER-11 OBJECT AU
1 60510U 24149AU  26131.46790843  .00009216  00000+0  23922-3 0  9994
2 60510  97.3725 214.9263 0004807  74.1766 286.0009 15.39192200 96668
FLOCK 4BE-2             
1 60511U 24149AV  26131.53531198  .00030823  00000+0  57012-3 0  9994
2 60511  97.3820 217.9015 0003702  84.0150 276.1523 15.48985230 96825
FLOCK 4BE-13            
1 60512U 24149AW  26131.47607720  .00009264  00000+0  22742-3 0  9990
2 60512  97.3716 215.5361 0004829  57.8671 302.3043 15.40896548 96717
FLOCK 4BE-27            
1 60513U 24149AX  26131.21077208  .00005463  00000+0  16952-3 0  9998
2 60513  97.3823 213.0637 0005361  83.3999 276.7854 15.33801239 96477
FLOCK 4BE-9             
1 60514U 24149AY  26131.18786436  .00010770  00000+0  27473-3 0  9992
2 60514  97.3788 215.1346 0004051  87.1796 272.9914 15.39684900 96622
FLOCK 4BE-6             
1 60516U 24149BA  26131.18864010  .00009987  00000+0  26438-3 0  9997
2 60516  97.3787 214.5604 0004813  83.5504 276.6289 15.38565107 96583
FLOCK 4BE-14            
1 60517U 24149BB  26131.20457464  .00010054  00000+0  25517-3 0  9996
2 60517  97.3692 214.6840 0005635  80.5101 279.6782 15.39852761 96638
FLOCK 4BE-1             
1 60518U 24149BC  26131.19297361  .00010946  00000+0  26418-3 0  9994
2 60518  97.3777 215.8200 0005173  80.3491 279.8340 15.41363314 96673
FLOCK 4BE-28            
1 60519U 24149BD  26131.45626021  .00012806  00000+0  28631-3 0  9999
2 60519  97.3743 216.6986 0005243  74.6999 285.4828 15.43621202 96774
IPERDRONE.0             
1 60520U 24149BE  26131.51793429  .00039340  00000+0  45419-3 0  9990
2 60520  97.3772 223.0703 0001701  47.1685 312.9715 15.61817763 97185
TRANSPORTER-11 OBJECT BF
1 60521U 24149BF  26131.52924421  .00094233  00000+0  70769-3 0  9998
2 60521  97.3770 225.0351 0000516 352.9787   7.1469 15.72302814 97309
CONNECTA IOT-2          
1 60522U 24149BG  26131.47206544  .00002849  00000+0  12169-3 0  9994
2 60522  97.3840 210.1827 0008170  94.9179 265.2991 15.23656181 96304
PTD-R (TYVAK-0127)      
1 60523U 24149BH  26131.25064764  .00145725  00000+0  54726-3 0  9993
2 60523  97.3760 228.7308 0001144 203.0875 157.0346 15.87463119 97541
CONNECTA IOT-4          
1 60524U 24149BJ  26131.46408179  .00011458  00000+0  28162-3 0  9999
2 60524  97.3794 215.4407 0006294  72.2396 287.9537 15.40792610 96675
ORESAT0.5               
1 60525U 24149BK  26131.50927612  .00012514  00000+0  27894-3 0  9998
2 60525  97.3716 216.9900 0006269  62.6049 297.5836 15.43710185 96819
DEIMOS                  
1 60526U 24149BL  26131.45717927  .00012269  00000+0  28087-3 0  9991
2 60526  97.3776 217.0942 0006420  68.2246 291.9684 15.42917795 96784
CUAVA-2                 
1 60527U 24149BM  26131.46285772  .00007730  00000+0  22789-3 0  9991
2 60527  97.3725 212.9452 0007906  71.3979 288.8122 15.35267435 96533
ERNST                   
1 60528U 24149BN  26131.49143757  .00008923  00000+0  23889-3 0  9998
2 60528  97.3803 214.9654 0007303  75.0874 285.1179 15.38234928 96630
TORO                    
1 60530U 24149BQ  26131.19331406  .00000793  00000+0  75232-4 0  9995
2 60530  97.6790 206.5542 0001590  94.6937 265.4466 14.96284076 94420
HYPSO-2                 
1 60531U 24149BR  26131.47932236  .00001551  00000+0  13418-3 0  9995
2 60531  97.6813 208.2775 0002153 113.6363 246.5086 14.98604028 94552
LEMU NGE                
1 60532U 24149BS  26131.43677275  .00001407  00000+0  13451-3 0  9998
2 60532  97.6847 207.1417 0002543 114.5734 245.5752 14.94799480 94468
LEMUR-2-STELLA          
1 60533U 24149BT  26131.46943817  .00006228  00000+0  37683-3 0  9999
2 60533  97.6730 213.7899 0001964 123.4462 236.6955 15.10996180 94955
SATELIOT_2              
1 60534U 24149BU  26131.44641573  .00000769  00000+0  73212-4 0  9995
2 60534  97.6834 207.0750 0001367 107.5919 252.5451 14.96224830 94474
NIGHTJAR                
1 60535U 24149BV  26131.54265801  .00001718  00000+0  14736-3 0  9993
2 60535  97.6834 208.7633 0001181 157.2143 202.9133 14.98798337137382
LEMUR-2-MARHISYAM       
1 60536U 24149BW  26131.50314345  .00006754  00000+0  41408-3 0  9999
2 60536  97.6874 214.2338 0001401 199.2786 160.8390 15.10485858 94942
SATELIOT_4              
1 60537U 24149BX  26131.46483427  .00001058  00000+0  98058-4 0  9999
2 60537  97.6737 206.6458 0002916 133.9373 226.2090 14.96530172 94484
PICO-02A021             
1 60538U 24149BY  26131.48494977  .00003060  00000+0  23246-3 0  9995
2 60538  97.6767 210.6440 0006590 131.9823 228.1964 15.02902826 94224
ICEYE-X43               
1 60539U 24149BZ  26131.46603279  .00001610  00000+0  13514-3 0  9997
2 60539  97.6771 208.9381 0004333 204.7302 155.3714 14.99741455 94619
